NORAD_CAT_ID,OBJECT_NAME,OBJECT_TYPE,EPOCH,MEAN_MOTION,ECCENTRICITY,INCLINATION,RA_OF_ASC_NODE,ARG_OF_PERICENTER,MEAN_ANOMALY,BSTAR,MEAN_MOTION_DOT,MEAN_MOTION_DDOT,TLE_LINE0,TLE_LINE1,TLE_LINE2,SEMIMAJOR_AXIS,PERIOD,APOGEE,PERIGEE,DECAYED
51791.0,STARLINK-3602,PAYLOAD,2023-12-22 07:48:39,15.08845248,0.0001815,53.2183,18.0083,64.991,295.127,0.00015063,2.11e-05,0.0,0 STARLINK-3602,1 51791U 22017Z   23356.32545419  .00002110  00000-0  15063-3 0  9999,2 51791  53.2183  18.0083 0001815  64.9910 295.1270 15.08845248101880,6917.864,95.437,540.985,538.474,0.0
51791.0,STARLINK-3602,PAYLOAD,2023-12-23 10:50:12,15.08842329,0.0001929,53.2182,12.9478,66.677,293.4425,4.8109e-05,4.78e-06,0.0,0 STARLINK-3602,1 51791U 22017Z   23357.45153794  .00000478  00000-0  48109-4 0  9998,2 51791  53.2182  12.9478 0001929  66.6770 293.4425 15.08842329102059,6917.873,95.437,541.073,538.404,0.0
51791.0,STARLINK-3602,PAYLOAD,2023-12-24 10:40:59,15.0884935,0.00019,53.2181,8.4881,100.7636,259.357,0.00030788,4.616e-05,0.0,0 STARLINK-3602,1 51791U 22017Z   23358.44513361  .00004616  00000-0  30788-3 0  9999,2 51791  53.2181   8.4881 0001900 100.7636 259.3570 15.08849350102206,6917.852,95.437,541.031,538.402,0.0
51791.0,STARLINK-3602,PAYLOAD,2023-12-25 04:10:13,15.08848483,0.0001647,53.2176,5.2129,111.1524,248.9644,0.00024366,3.593e-05,0.0,0 STARLINK-3602,1 51791U 22017Z   23359.17377282  .00003593  00000-0  24366-3 0  9998,2 51791  53.2176   5.2129 0001647 111.1524 248.9644 15.08848483102314,6917.854,95.437,540.859,538.58,0.0
51791.0,STARLINK-3602,PAYLOAD,2023-12-25 07:20:59,15.08855042,0.0001559,53.2166,4.6176,102.8735,257.2432,0.0003036,4.549e-05,0.0,0 STARLINK-3602,1 51791U 22017Z   23359.30624929  .00004549  00000-0  30360-3 0  9999,2 51791  53.2166   4.6176 0001559 102.8735 257.2432 15.08855042102330,6917.834,95.437,540.778,538.621,0.0
51791.0,STARLINK-3602,PAYLOAD,2023-12-26 04:01:01,15.08841756,0.0001655,53.2162,0.7629,108.0342,252.083,-3.5881e-05,-8.59e-06,0.0,0 STARLINK-3602,1 51791U 22017Z   23360.16737398 -.00000859  00000-0 -35881-4 0  9996,2 51791  53.2162   0.7629 0001655 108.0342 252.0830 15.08841756102461,6917.875,95.437,540.885,538.595,0.0
51791.0,STARLINK-3602,PAYLOAD,2023-12-26 05:36:24,15.08841339,0.0001487,53.217,0.4634,94.9445,265.1717,-1.3891e-05,-5.09e-06,0.0,0 STARLINK-3602,1 51791U 22017Z   23360.23361429 -.00000509  00000-0 -13891-4 0  9991,2 51791  53.2170   0.4634 0001487  94.9445 265.1717 15.08841339102470,6917.876,95.437,540.77,538.713,0.0
51791.0,STARLINK-3602,PAYLOAD,2023-12-27 03:51:48,15.08836993,0.0001451,53.2168,356.3024,94.8835,265.2323,-4.8529e-06,-3.65e-06,0.0,0 STARLINK-3602,1 51791U 22017Z   23361.16097896 -.00000365  00000-0 -48529-5 0  9995,2 51791  53.2168 356.3024 0001451  94.8835 265.2323 15.08836993102616,6917.89,95.438,540.758,538.751,0.0
51791.0,STARLINK-3602,PAYLOAD,2023-12-27 07:02:34,15.08840581,0.0001474,53.2172,355.7074,99.1957,260.9202,4.752e-05,4.68e-06,0.0,0 STARLINK-3602,1 51791U 22017Z   23361.29345810  .00000468  00000-0  47520-4 0  9992,2 51791  53.2172 355.7074 0001474  99.1957 260.9202 15.08840581102635,6917.879,95.438,540.763,538.724,0.0
51791.0,STARLINK-3602,PAYLOAD,2023-12-28 08:28:45,15.08840122,0.0001532,53.2176,350.9501,101.6856,258.4308,0.00014833,2.073e-05,0.0,0 STARLINK-3602,1 51791U 22017Z   23362.35330199  .00002073  00000-0  14833-3 0  9998,2 51791  53.2176 350.9501 0001532 101.6856 258.4308 15.08840122102790,6917.88,95.438,540.805,538.685,0.0
51791.0,STARLINK-3602,PAYLOAD,2023-12-29 03:33:23,15.08836458,0.0001653,53.2188,347.3815,103.7554,256.3623,6.5052e-05,7.47e-06,0.0,0 STARLINK-3602,1 51791U 22017Z   23363.14818600  .00000747  00000-0  65052-4 0  9990,2 51791  53.2188 347.3815 0001653 103.7554 256.3623 15.08836458102911,6917.891,95.438,540.9,538.613,0.0
51791.0,STARLINK-3602,PAYLOAD,2023-12-29 08:19:32,15.08839887,0.0001637,53.2187,346.4873,90.8366,269.2813,0.00012665,1.728e-05,0.0,0 STARLINK-3602,1 51791U 22017Z   23363.34690588  .00001728  00000-0  12665-3 0  9996,2 51791  53.2187 346.4873 0001637  90.8366 269.2813 15.08839887102949,6917.881,95.438,540.878,538.613,0.0
51791.0,STARLINK-3602,PAYLOAD,2023-12-30 08:10:19,15.08854442,0.0001524,53.2182,342.0292,90.6628,269.4539,0.00024931,3.684e-05,0.0,0 STARLINK-3602,1 51791U 22017Z   23364.34049805  .00003684  00000-0  24931-3 0  9999,2 51791  53.2182 342.0292 0001524  90.6628 269.4539 15.08854442103093,6917.836,95.437,540.756,538.647,0.0
51791.0,STARLINK-3602,PAYLOAD,2023-12-30 22:28:48,15.08838475,0.000166,53.2178,339.3526,90.1171,270.0011,1.3937e-05,-6.6e-07,0.0,0 STARLINK-3602,1 51791U 22017Z   23364.93666714 -.00000066  00000-0  13937-4 0  9995,2 51791  53.2178 339.3526 0001660  90.1171 270.0011 15.08838475103187,6917.885,95.438,540.898,538.602,0.0
51791.0,STARLINK-3602,PAYLOAD,2023-12-31 03:14:57,15.08838317,0.0001448,53.2179,338.4607,90.7898,269.326,2.2331e-05,6.7e-07,0.0,0 STARLINK-3602,1 51791U 22017Z   23365.13538745  .00000067  00000-0  22331-4 0  9998,2 51791  53.2179 338.4607 0001448  90.7898 269.3260 15.08838317103210,6917.886,95.438,540.752,538.749,0.0
51791.0,STARLINK-3602,PAYLOAD,2023-12-31 08:01:06,15.08841942,0.0001478,53.2176,337.5682,90.2365,269.8797,7.8726e-05,9.65e-06,0.0,0 STARLINK-3602,1 51791U 22017Z   23365.33410620  .00000965  00000-0  78726-4 0  9997,2 51791  53.2176 337.5682 0001478  90.2365 269.8797 15.08841942103248,6917.874,95.437,540.762,538.717,0.0
51791.0,STARLINK-3602,PAYLOAD,2024-01-01 07:51:53,15.08848573,0.000157,53.2184,333.1061,101.7085,258.4084,0.00010758,1.425e-05,0.0,0 STARLINK-3602,1 51791U 22017Z   24001.32770281  .00001425  00000-0  10758-3 0  9998,2 51791  53.2184 333.1061 0001570 101.7085 258.4084 15.08848573103396,6917.854,95.437,540.805,538.633,0.0
51791.0,STARLINK-3602,PAYLOAD,2024-01-02 02:56:31,15.08842678,0.0001555,53.2181,329.537,88.4414,271.6756,0.00012353,1.679e-05,0.0,0 STARLINK-3602,1 51791U 22017Z   24002.12258673  .00001679  00000-0  12353-3 0  9997,2 51791  53.2181 329.5370 0001555  88.4414 271.6756 15.08842678103512,6917.872,95.437,540.813,538.661,0.0
51791.0,STARLINK-3602,PAYLOAD,2024-01-02 22:01:09,15.08842019,0.0001589,53.2181,325.9675,91.6801,268.4373,6.6831e-05,7.76e-06,0.0,0 STARLINK-3602,1 51791U 22017Z   24002.91746596  .00000776  00000-0  66831-4 0  9998,2 51791  53.2181 325.9675 0001589  91.6801 268.4373 15.08842019103634,6917.874,95.437,540.838,538.64,0.0
51791.0,STARLINK-3602,PAYLOAD,2024-01-03 01:11:55,15.08841712,0.0001533,53.2174,325.3728,100.9613,259.1552,0.00013481,1.858e-05,0.0,0 STARLINK-3602,1 51791U 22017Z   24003.04994533  .00001858  00000-0  13481-3 0  9993,2 51791  53.2174 325.3728 0001533 100.9613 259.1552 15.08841712103650,6917.875,95.437,540.801,538.68,0.0
51791.0,STARLINK-3602,PAYLOAD,2024-01-04 02:38:06,15.0883665,0.0001379,53.2179,320.6194,89.1243,270.9907,3.8788e-05,3.29e-06,0.0,0 STARLINK-3602,1 51791U 22017Z   24004.10979232  .00000329  00000-0  38788-4 0  9990,2 51791  53.2179 320.6194 0001379  89.1243 270.9907 15.08836650103813,6917.891,95.438,540.71,538.802,0.0
51791.0,STARLINK-3602,PAYLOAD,2024-01-04 07:24:15,15.08837788,0.0001415,53.218,319.7262,92.7176,267.3978,4.2806e-05,3.93e-06,0.0,0 STARLINK-3602,1 51791U 22017Z   24004.30851125  .00000393  00000-0  42806-4 0  9999,2 51791  53.2180 319.7262 0001415  92.7176 267.3978 15.08837788103840,6917.887,95.438,540.731,538.773,0.0
51791.0,STARLINK-3602,PAYLOAD,2024-01-05 02:28:52,15.08845807,0.0001365,53.2176,316.1592,96.8153,263.2994,0.00011901,1.607e-05,0.0,0 STARLINK-3602,1 51791U 22017Z   24005.10338376  .00001607  00000-0  11901-3 0  9996,2 51791  53.2176 316.1592 0001365  96.8153 263.2994 15.08845807103963,6917.863,95.437,540.672,538.783,0.0
51791.0,STARLINK-3602,PAYLOAD,2024-01-05 05:39:38,15.0885097,0.0001407,53.2182,315.5632,89.0271,271.0882,0.00016133,2.281e-05,0.0,0 STARLINK-3602,1 51791U 22017Z   24005.23585982  .00002281  00000-0  16133-3 0  9998,2 51791  53.2182 315.5632 0001407  89.0271 271.0882 15.08850970103982,6917.847,95.437,540.685,538.739,0.0
51791.0,STARLINK-3602,PAYLOAD,2024-01-06 02:19:39,15.08838903,0.0001318,53.2177,311.6986,99.8471,260.267,8.8955e-05,1.128e-05,0.0,0 STARLINK-3602,1 51791U 22017Z   24006.09699032  .00001128  00000-0  88955-4 0  9996,2 51791  53.2177 311.6986 0001318  99.8471 260.2670 15.08838903104110,6917.884,95.438,540.661,538.837,0.0
51791.0,STARLINK-3602,PAYLOAD,2024-01-06 05:30:26,15.08841242,0.0001319,53.2181,311.1034,95.297,264.8172,0.00011061,1.473e-05,0.0,0 STARLINK-3602,1 51791U 22017Z   24006.22946914  .00001473  00000-0  11061-3 0  9991,2 51791  53.2181 311.1034 0001319  95.2970 264.8172 15.08841242104138,6917.877,95.437,540.654,538.829,0.0
51791.0,STARLINK-3602,PAYLOAD,2024-01-06 19:48:54,15.08837389,0.0001369,53.217,308.4257,114.6077,245.5058,4.0485e-06,-2.23e-06,0.0,0 STARLINK-3602,1 51791U 22017Z   24006.82562926 -.00000223  00000-0  40485-5 0  9991,2 51791  53.2170 308.4257 0001369 114.6077 245.5058 15.08837389104227,6917.888,95.438,540.7,538.806,0.0
51791.0,STARLINK-3602,PAYLOAD,2024-01-07 05:21:12,15.08849547,0.000145,53.2178,306.6414,121.4273,238.6861,9.5152e-05,1.227e-05,0.0,0 STARLINK-3602,1 51791U 22017Z   24007.22306261  .00001227  00000-0  95152-4 0  9998,2 51791  53.2178 306.6414 0001450 121.4273 238.6861 15.08849547104285,6917.851,95.437,540.719,538.713,0.0
51791.0,STARLINK-3602,PAYLOAD,2024-01-07 22:50:27,15.0883485,0.0001497,53.2171,303.3692,118.4093,241.705,3.0667e-05,2e-06,0.0,0 STARLINK-3602,1 51791U 22017Z   24007.95171264  .00000200  00000-0  30667-4 0  9991,2 51791  53.2171 303.3692 0001497 118.4093 241.7050 15.08834850104395,6917.896,95.438,540.797,538.726,0.0
51791.0,STARLINK-3602,PAYLOAD,2024-01-08 02:01:14,15.08839177,0.0001447,53.2188,302.7747,97.9379,262.1777,6.3066e-05,7.16e-06,0.0,0 STARLINK-3602,1 51791U 22017Z   24008.08419145  .00000716  00000-0  63066-4 0  9990,2 51791  53.2188 302.7747 0001447  97.9379 262.1777 15.08839177104413,6917.883,95.438,540.749,538.747,0.0
